uid,name,province,city,area,address,lng,lat
0e02000069f7f455a104640b,宝安西湾红树林公园,广东省,深圳市,宝安区,金湾大道旁,113.83174970244848,22.590785531072566
e458d7f6f221f64d8f1a8958,荔枝公园,广东省,深圳市,福田区,深圳市福田区红岭中路1001号,114.0974633278007,22.548328276517157
0058610833f101a546e274c0,西乡公园,广东省,深圳市,宝安区,富成路160号,113.87621646541227,22.58013100894747
992f1ebc6ec32bf8f503b8ff,碧海湾公园,广东省,深圳市,宝安区,广东省深圳市宝安区新湾路317号,113.84698706057517,22.58740972694935
3be122e12c73be521ef74d6c,洪湖公园,广东省,深圳市,罗湖区,深圳市罗湖区文锦北路2023号,114.115343395091,22.568550192995595
f757e6ee92306d17260bd0c2,民治公园,广东省,深圳市,龙华区,广东省深圳市龙华区民治街道民旺路88号,114.0303391084153,22.621961944663223
c61bd305fb228769c37da2a7,平湖生态园,广东省,深圳市,龙岗区,广东省深圳市龙岗区华南大道1号华南城西门对面,114.10572057651378,22.676699846360663
81d6a5095fa3db406e20b948,荔香公园,广东省,深圳市,南山区,南光路与南头街交界处,113.92466411992044,22.539919338583616
0ed20a15f4f927ea56bfff8b,龙华公园,广东省,深圳市,龙华区,广东省深圳市龙华区公园路,114.01184317325807,22.66013153134945
873543b459338f67eaf8532e,海滨公园,广东省,深圳市,宝安区,广东省深圳市宝安区延兴路,113.84069527547445,22.590545494160214
0870c5626f761e8ff4231014,香蜜公园,广东省,深圳市,福田区,深圳市福田区农园路30号,114.01702960268237,22.549445521539695
171d9b8d15dc68ea9222e09f,莲花山公园,广东省,深圳市,福田区,广东省深圳市福田区莲花街道莲花北社区红荔路6030号,114.0535167561531,22.556314834492525
9c5fb7a38210132cf4eafc3a,前海石公园,广东省,深圳市,南山区,前海自贸合作区前湾二路,113.88559707123427,22.53060699813616
341c35deee2990c0e707389f,凤凰山国家矿山公园,广东省,深圳市,龙岗区,深圳市龙岗区平湖镇双拥街186号斜对面,114.13247068209301,22.704066693896685
d6df91c14024e46af7b91629,布吉公园,广东省,深圳市,龙岗区,深圳市龙岗区金龙路21,114.11310740678272,22.60732152115084
925c550f9c7d03ab5a3ac874,大沙河公园,广东省,深圳市,南山区,深圳市南山区沙河东路北环大道8228号,113.9569101757363,22.56004569485461
fd13a3f2918e7987b1077d7f,铁仔山公园,广东省,深圳市,宝安区,深圳市宝安区西城工业城内,113.85537609599454,22.5978321595265
56b658a24899a9fb2b11d156,深圳德逸公园,广东省,深圳市,龙华区,梅陇路307号附近,114.02340130290769,22.635403541103784
d24e48ebb04de7c9aeee7a8a,石芽岭信义体育公园,广东省,深圳市,龙岗区,东西干道3号,114.1293038400125,22.621244939294574
8b395ea76993f0e5d6b74ebe,求水山公园,广东省,深圳市,龙岗区,深圳市龙岗区南湾街道南岭村社区龙山路(近南岭花园),114.13857337227533,22.601035564881293
391e1bcbc9fa83f56c4760fa,大王山公园,广东省,深圳市,宝安区,沙井镇南环路,113.80345465296845,22.716645568155183
50fb64ff0195f15de9f8536c,人民公园(人民北路),广东省,深圳市,罗湖区,深圳市罗湖区人民北路3071号,114.11213704455156,22.55588585262884
97813f4664f4f1db8bfc06ea,红树林海滨生态公园,广东省,深圳市,福田区,滨河大道,113.99630420019444,22.526119765807362
df2fbad8ddee98cfe9f85366,深圳湾公园,广东省,深圳市,南山区,深圳市南山区滨海大道,113.99207984389818,22.52491315357072
2cc3c8e8e521e6ab4c2fdf8e,石鼓山公园,广东省,深圳市,南山区,深圳市南山区石鼓路2012号,113.94549660853869,22.581353933260147
8b693f28c1d378b888fc06eb,石岩湿地公园,广东省,深圳市,宝安区,广东省深圳市宝安区塘头大道,113.91657099434023,22.68350071386127
a5097bfa2ba54063f03cba48,红花园-社区公园,广东省,深圳市,南山区,南光路234号,113.9182208058912,22.542427545076237
a12baa405e3a7455e856fa2d,深圳市围岭公园,广东省,深圳市,罗湖区,深圳市罗湖区金稻田路1603号,114.12222950604159,22.58632426625008
49289d8e5a282fc7f5c59c0d,中山公园,广东省,深圳市,南山区,深圳市南山区南山大道3109号(近汇泉广场),113.91393935098577,22.55078421606521
7a2806102bdbb99ad5b74ef5,塘朗山公园,广东省,深圳市,福田区,广东省深圳市福田区,114.00645440408341,22.578887270731265
a79029710a34b34743afe691,深圳中心公园,广东省,深圳市,福田区,深圳市福田区振华西路1号,114.07324419772709,22.55496805202849
803708f1aa151979018972c0,灵芝公园,广东省,深圳市,宝安区,前进一路80号,113.90268858811336,22.57257583887587
c7eca12be5f37834e115f92f,凤凰山,广东省,深圳市,宝安区,深圳市宝安区福永镇凤凰村,113.84583227439596,22.677877305648074
32953a33a703939eeaf853c0,西湾滨海公园,广东省,深圳市,宝安区,广东省深圳市宝安区金湾大道,113.8282297891996,22.5994613132177
1bf85b255510daa4a1a9344e,南山公园,广东省,深圳市,南山区,广东省深圳市南山区南山街道荔湾社区别墅路8号,113.90065295442248,22.497116907134597
88453ec7c05a0c11a8f729ac,华侨城湿地公园,广东省,深圳市,南山区,广东省深圳市南山区白石路与云天路交汇处西北侧(香港大学深圳医院对面),113.97802645316143,22.530514942950518
53d33e1112fd2c5cfa42b22e,北站中心公园,广东省,深圳市,龙华区,广东省深圳市龙华区致远中路,114.02099333108045,22.609746058072933
e41eb1fb40abb0b82fb96db2,世界之窗,广东省,深圳市,南山区,深圳市南山区深南大道9037号,113.96799973372327,22.537645236979035
40813caf017d337c9de32150,锦绣园,广东省,深圳市,福田区,深圳市福田区三龙花园附近,114.05437396027976,22.529325263799432
93df0dc39f5dca56882fb56c,平峦山公园,广东省,深圳市,宝安区,深圳市宝安区西乡街道桃源社区前进二路与宝田三路交叉口(近桃源居),113.87164426570747,22.6112377803402
169392220e64143a4c554755,皇岗公园,广东省,深圳市,福田区,深圳市福田区福强路2088号,114.05288609447396,22.520924811724946
05dd7d5fdbb71002ad080f20,黄田公园,广东省,深圳市,宝安区,广东省深圳市宝安区航城街道黄田社区利达路,113.83652162084417,22.6327487040494
518e23eccdf1f31caaf72955,湖贝公园,广东省,深圳市,罗湖区,深圳市罗湖区湖贝旧村南坊113,114.12037109827908,22.547370346476942
61f634f68bc173056b49f36f,长圳公园,广东省,深圳市,光明区,深圳市光明区公明镇玉塘街道长圳社区长凤路359号,113.91503458156352,22.72052188627463
22e114075a9a30b4d5b74e6c,深圳市儿童公园,广东省,深圳市,罗湖区,深圳市罗湖区童乐路12号,114.11925368710388,22.556327984412782
80f0a3e7297a611d40024540,南昌公园,广东省,深圳市,宝安区,深圳市宝安区南昌路,113.83615765921407,22.599145146850372
4df14e953664bc3e7bf796fd,翠岗公园,广东省,深圳市,宝安区,翠岗西路52号,113.81653984158169,22.66804875495955
6a2ab7b5393ff3aef942b2fb,东湖公园,广东省,深圳市,罗湖区,广东省深圳市罗湖区黄贝街道爱国路4006号,114.14383801163746,22.566615027728925
91c13f93fcc28c8720f0178b,翠竹公园,广东省,深圳市,罗湖区,深圳市罗湖区翠竹路1078号,114.1293074203973,22.56646155136274
33fbfa83a587cfbc0bf5eb7a,观澜老街公园,广东省,深圳市,龙华区,深圳市龙华区新澜大街40,114.04875034887709,22.71910553625955
ebdfa7dd4459062fb817e741,麻磡公园,广东省,深圳市,南山区,广东省深圳市南山区麻磡南路,113.94645749209481,22.63758826088266
373cf757580cfc6e4354d7c2,三联公园,广东省,深圳市,龙华区,广东省深圳市龙华区建辉路,114.013208351963,22.66752770234765
c8e8f63372783611aa0dd88e,前海花卉公园,广东省,深圳市,南山区,深圳市南山区荷兰花卉小镇旁,113.90717474006853,22.54852180333404
691939e517baf814adb22ae1,观澜体育公园,广东省,深圳市,龙华区,广东省深圳市龙华区观光路与观兴东路交叉处,114.02490962940175,22.7278243612928
dad3e3ec1f4d5cf74557268c,深圳湾公园,广东省,深圳市,南山区,广东省深圳市南山区望海路1051附近,113.92300059352564,22.48714181328163
e67732a0e0db077830169b80,宝安公园,广东省,深圳市,宝安区,新安四路,113.89790150158731,22.58918595904946
4f43af844c0a988fbfa822d9,梅林山公园,广东省,深圳市,福田区,深圳市福田区梅亭路14号,114.02501550430661,22.56475937355089
00f1c7fb1d32271fc056ac16,深圳国际园林花卉博览园,广东省,深圳市,福田区,深圳市福田区香蜜湖街道竹林社区深南大道竹子林段8002号,113.99844934484095,22.540551987674654
7aea43b7c0d074f87c29bd48,松坪山公园,广东省,深圳市,南山区,广东省深圳市南山区西丽街道松坪社区乌石头路9号,113.94245525538766,22.561487271726214
bb1d38e4ddd7db4d0c0a70c0,流塘公园,广东省,深圳市,宝安区,深圳市宝安区前进二路(正集源大厦旁边),113.88702065022133,22.585998915587442
f170ffc000c9a5faf1193766,田寮社区公园,广东省,深圳市,光明区,广东省深圳市光明区玉塘街道田寮社区警民路,113.8977721933668,22.731478691569187
7fd7231186ccd69f5cbe86c1,新安公园,广东省,深圳市,宝安区,前进一路与新安二路交叉口,113.90697219851918,22.566461743911667
bba873886726c5a1bca822c4,龙胜公园,广东省,深圳市,龙华区,深圳市龙华区龙胜新村a区67栋303室,114.00876648178027,22.653314592957354
844a750e0c237fa0636858b1,四海公园,广东省,深圳市,南山区,深圳市南山区公园路6号,113.92209761753247,22.49905492921474
fd8806eef151cb3128201a15,银湖山郊野公园,广东省,深圳市,罗湖区,广东省深圳市罗湖区清水河街道银湖社区,114.0781581638104,22.596229241660055
d991e116bfb01e551f3894fd,新桥中心公园,广东省,深圳市,宝安区,深圳市宝安区新沙路164号,113.82639105705412,22.73231953628285
332e28079473dfa88505bf6c,大生体育公园,广东省,深圳市,龙岗区,广东省深圳市龙岗区牛始埔路81号,114.17588667855945,22.63523178727058
34f68ab00620450a8f55ecfc,罗租岭公园,广东省,深圳市,宝安区,如意路167号,113.93139918083972,22.67889116105038
e8e281d0bddde97cc62ba15d,前海运动公园,广东省,深圳市,南山区,深圳市南山区梦海大道与前湾二路交汇处,113.8928032441949,22.51842278379613
a2a6f2de6f737762bca8222c,深圳湾公园-海韵公园,广东省,深圳市,南山区,深圳市南山区滨海大道,113.97716568890377,22.521853423898925
850815e18eed4d9843e1922f,望牛亭(政丰北路),广东省,深圳市,宝安区,深圳市宝安区政丰北路,113.8112880812309,22.67649285746952
c8055ce0351b32c0dad8913e,南山公园别墅-登山口,广东省,深圳市,南山区,深圳市南山区蛇口别墅路8号,113.90074137104295,22.48809598529897
d6ab8ebe8c97452b5b10934c,立新湖公园,广东省,深圳市,宝安区,广东省深圳市宝安区,113.81540249235216,22.68790842760123
9e1ec5303177dab39c09f70f,樟坑径公园,广东省,深圳市,龙华区,上围路104号附近,114.07637089659012,22.682794867369648
29a2581c27b5cff1f1193725,罗湖体育休闲公园,广东省,深圳市,罗湖区,广东省深圳市罗湖区黄贝街道办爱国路东湖二路10号,114.14316703590875,22.557076474094213
3a0d753d93acf7a62811d171,黄金山公园,广东省,深圳市,龙岗区,深圳市龙岗区坂雪岗大道西侧(中海日辉台对面),114.05967415378929,22.641522009142836
3b440ee8835e4e629b68b481,铁路公园,广东省,深圳市,罗湖区,草埔地铁站D3口东南50米,114.11043963025904,22.585455382621813
06c1f68b7bb8ce51b05c6a1b,银湖山郊野公园-文谷庄园,广东省,深圳市,龙岗区,广东省深圳市龙岗区文博路,114.09199002459518,22.605326319384417
2a8fde5bba565e6d17948e53,簕杜鹃谷公园,广东省,深圳市,宝安区,广东省深圳市宝安区九围看守所路,113.85617534441603,22.653003162486325
a2ec0d2dfb3f5626901fc993,景田北六街街心公园(宠物主题园),广东省,深圳市,福田区,深圳市福田区花景道(北六街与景田北八街交界处),114.0306045656716,22.560979058552366
4634f4d0c3446cf5882fb597,白石龙音乐主题公园,广东省,深圳市,龙华区,深圳市龙华区新区大道与金龙路交叉口西南200米,114.03362382555312,22.59992998831626
16b8c468459c86d4ad080fc0,羊台山森林公园-大浪文化公园,广东省,深圳市,龙华区,广东省深圳市龙华区布龙路,113.98331936679027,22.672087881477516
f5e3bcae6e7d56bc5e17c31a,桥头社区公园,广东省,深圳市,宝安区,深圳市宝安区桥兴路与桥和路交叉口处附近,113.80211577947583,22.69056209030728
8a54cb2a7eb7be5a715e806b,深圳湾公园C区-运动公园,广东省,深圳市,南山区,广东省深圳市南山区望海路深圳湾公园运动公园附近,113.9421409634926,22.48919786534541
d0c2114f936fdbb404026f10,观澜河湿地公园,广东省,深圳市,龙华区,广东省深圳市龙华区观澜大道观澜河人工湿地(招商澜园西),114.03930388716422,22.68653251581697
e2d7fabc485db92ffb2213f6,九祥岭社区公园,广东省,深圳市,南山区,广东省深圳市南山区留仙大道1312附近,113.95476491560201,22.587359286393752
b533ea4aa766d6424f6d4632,小南山公园,广东省,深圳市,南山区,深圳市南山区蛇口镇棉山路,113.87972246482862,22.48803203937573
aeb4c5b1ba6667e807fef522,日本园(茶花园),广东省,深圳市,福田区,深圳市福田区深圳国际园林花卉博览园南区,113.99752621294704,22.538096599524007
8cb35931574a50130aa8d4fc,仙桐体育公园,广东省,深圳市,罗湖区,莲塘梧桐山(近莲塘罗湖公安局),114.18030867379079,22.56446930001374
b9cdea532c12ebce931fc9c9,石凹公园,广东省,深圳市,龙华区,广东省深圳市龙华区大浪北路,113.9874098757486,22.69981096699415
666fc5e5e0e15cc91fe9995d,深圳湾公园北湾鹭港,广东省,深圳市,南山区,深圳市南山区北湾鹭港(滨海大道南110米),113.95828163462139,22.521918865493145
b455e3f3578b6734d3ff23bb,向日葵公园,广东省,深圳市,福田区,广东省深圳市福田区中心五路与福华一路交叉口东北100米,114.05624543464606,22.540159554228097
f5e3bcae648b58c05e17c36c,下李朗公园,广东省,深圳市,龙岗区,广东省深圳市龙岗区下李朗公园(水官高速公路北),114.12950018019949,22.641320360903777
b35d1fc4f60635546c3e1b8b,草围公园,广东省,深圳市,宝安区,黄田草围村龟山路21号,113.8342033911002,22.62722835449064
d9bc3bfb1b1f365c28d7ab9b,深圳野生动物园,广东省,深圳市,南山区,广东省深圳市南山区西丽湖路4065号(西丽湖东侧),113.96610983693198,22.599024806596105
808e591910ba5d05fbf0cb80,羊台山森林公园,广东省,深圳市,宝安区,石岩文化艺术中心旁,113.94299939538024,22.667980297383117
083a55fa29ef0579246e98fd,新二村公园,广东省,深圳市,宝安区,广东省深圳市宝安区新二路107号,113.83472653685055,22.733156700476695
81c88f5a86681e0d4d554716,兴海公园,广东省,深圳市,南山区,深圳市南山区香格名苑a13,113.88161881590503,22.495048121921407
69878aa1c9d8ac5720f017c7,深圳湾公园-婚庆公园,广东省,深圳市,南山区,深圳市南山区望海路,113.9478208676283,22.494808880595045
f1dcd3c887bf3582441a32c2,深圳湾公园-观桥公园,广东省,深圳市,南山区,深圳市南山区望海路附近,113.9473347160278,22.491283575702163
d2d97054f59b341c8c55ec43,杜鹃公园,广东省,深圳市,龙岗区,深圳市龙岗区深坑路167号,114.1669175788621,22.641805970028255
f5e3bcae6e8d56bc5e17c36a,松元公园,广东省,深圳市,龙华区,广东省深圳市龙华区高尔夫大道与观光大道交汇处西北侧,114.06238356641178,22.72536224359776
a040d7cc5d6b47234e776ef4,大浪市民公园,广东省,深圳市,龙华区,广东省深圳市龙华区大浪市民公园(永乐路南),113.99789561122464,22.697468740226952
a5e736c03aef325f91114cfd,百旺公园,广东省,深圳市,南山区,广东省深圳市南山区宝安中心区沙河西路白芒村百旺公园,113.93566638868663,22.62397459613521
8e0866a12e9ff3832cb908c7,山厦公园,广东省,深圳市,龙岗区,惠华西路24号,114.11099775180405,22.704713677670345
377862fcbc4ad5023617dc5f,深圳湾公园-C区,广东省,深圳市,南山区,深圳市南山区望海路深圳湾公园内,113.94121206444252,22.489138307448773
7a077e47bf3a4b908adb73d2,桂花河滨公园,广东省,深圳市,龙华区,桂花路与观光路交叉口南50米,114.05522704641373,22.733017674507245
c79d3375a80ac9122bd7abec,大浪消防文化主题公园,广东省,深圳市,龙华区,广东省深圳市龙华区大浪消防文化主题公园(永乐路东),113.99243140505945,22.696511171069407
9cac69b4cb3d6a33dcee8b66,甲子塘社区公园,广东省,深圳市,光明区,广东省深圳市光明区凤凰街道康茂路,113.91301199967172,22.73451584532071
02085cfe74d3751ac8213deb,小沙山,广东省,深圳市,南山区,深圳市南山区滨海大道,113.95182523653126,22.52263178274142
c4e6a833054df01c2811d1e5,党建公园,广东省,深圳市,光明区,广东省深圳市光明区警民路18号东80米,113.89884019735385,22.731367586630626
586b4ab67447233de812e4f3,易家青年公园,广东省,深圳市,龙华区,大浪赖屋山东区76栋易家青年公园,113.98945708648029,22.675559750971036
f421c7210072f8bbe856faeb,高新南社区公园,广东省,深圳市,南山区,科技南五路与高新南五道交叉口东北50米,113.94224259891314,22.539039218263884
59bded2dd24528ad471a321c,田新公园,广东省,深圳市,光明区,广东省深圳市光明区科联路,113.90814638751664,22.729369927908614
e13c696bed116783b8bd63ab,南湾街道消防文化主题公园,广东省,深圳市,龙岗区,广东省深圳市龙岗区布吉新区南湾街道丹沙路沙湾居委会社区小区,114.1592465684642,22.61075697510177
f1791f3a4226a3529cf77993,东乐社区公园,广东省,深圳市,罗湖区,布心路1023,114.1354672955053,22.574259256377793
377a13b81181e0f4ea12e413,深圳湾公园-弯月山谷,广东省,深圳市,南山区,深圳市南山区深圳湾公园弯月山谷,113.94876031521552,22.508552844435975
38ae22f66d5f7b76130daa22,凤鸣街心公园,广东省,深圳市,光明区,光侨路1013号附近,113.88768553872573,22.723755782308487
10dfd8ac84f68192da2f2892,羊台山森林公园-棕榈岛,广东省,深圳市,龙华区,深圳市龙华区羊台山森林公园内,113.97918623983375,22.671659282290186
742ea4fa4de0b0c21ef74da2,滨福广场街心小公园,广东省,深圳市,南山区,广东省深圳市南山区高新南十一道28-18附近,113.94460852677108,22.527668163590025
3e119733a8183ff41e1d1121,深圳苏梅岛,广东省,深圳市,南山区,广东省深圳市南山区望海路,113.94752889431585,22.491375078269687
10932f4b3c4a3649a8175af2,新田公园(新田村办公楼东),广东省,深圳市,罗湖区,广东省深圳市罗湖区新田公园(望桐路南),114.17228888407627,22.604662582065576
507fd31ac28e9199157643ec,祥福园,广东省,深圳市,宝安区,松福大道与福洲大道交叉口西北100米,113.78289138706529,22.678223152186984
367088feecfbedf94d776e08,凤凰山森林公园-许愿亭,广东省,深圳市,宝安区,福永街道凤凰村凤凰山森林公园内,113.85062273282026,22.674829721733012
deaac5804a994f5eeaf85354,麦宝桥头公园(水店),广东省,深圳市,宝安区,福永桥头新村二巷8号,113.80294094137113,22.689730747657936
34f7e043f0ff7bf82b11d151,红树林公园二期,广东省,深圳市,宝安区,广东省深圳市宝安区西湾红树林湿地公园东南100米,113.83381126601395,22.58970007516277
36fd6017d6f7370bd13ce39c,瓜果公园,广东省,深圳市,南山区,月亮湾青青街1号青青世界内,113.89470753232351,22.50039350953583
9cdd93c7abea344ef82d61e2,又一村街心公园,广东省,深圳市,龙岗区,八约一街5-11号附近,114.10306035132533,22.610491618411352
ba7d5c457e5112de82a12ebe,药用植物区,广东省,深圳市,罗湖区,深圳市罗湖区莲塘仙湖路160号仙湖植物园内,114.16764222644835,22.58476569296113
322571fc2d42b31eca1b953c,凤凰山森林公园-云顶参天景区,广东省,深圳市,宝安区,福永街道凤凰村凤凰山森林公园内,113.85190306298855,22.678701456931147
8be541930261986ef7eafc96,凤凰山森林公园-山清水秀亭,广东省,深圳市,宝安区,福永街道凤凰村凤凰山森林公园内,113.84998784156616,22.67795620065325
86d8d462e37715eb03ff2dad,周衮姜公祠,广东省,深圳市,宝安区,固戍一路与文昌路交叉口西50米,113.83819401975683,22.592994246869544
c73c6de69feb04098c55ec4d,石岩湖绿道,广东省,深圳市,宝安区,广东省深圳市宝安区石岩湖绿道,113.91734967633896,22.679714984492335
0029702dcdf60dcabbbd63e0,洪湖公园-东小门2号,广东省,深圳市,罗湖区,深圳市罗湖区洪湖二街与洪湖路交叉口西50米,114.11396639717961,22.56353186297841
95886dd966d6f606b6f42f1b,梧桐绿道,广东省,深圳市,罗湖区,深圳市罗湖区,114.16268804710943,22.592257709289676
4c5c821b8fdaa9fc0e3ddac9,公园东一路,广东省,深圳市,宝安区,广东省深圳市宝安区中心区塘头大道塘头村,113.91298503693962,22.661942453393888
37d60a463bbb62631e1d1129,八仙岭公园,广东省,深圳市,龙岗区,深圳市龙岗区爱南路北侧,114.27281312299606,22.718989293998554
d5464cf8b7f49b57fda7782a,龙潭公园,广东省,深圳市,龙岗区,深圳市龙岗区龙城街道长兴南路31号,114.23798112034818,22.726432970184664
8cfac607d16443fc3a13fdaa,马峦山郊野公园,广东省,深圳市,坪山区,广东省深圳市坪山区马峦街道马峦社区坪马线公路,114.34204668582409,22.66211892186913
5e19b631f765dc9854bfff71,龙城公园,广东省,深圳市,龙岗区,深圳市龙岗区清林路,114.22137504424477,22.715551651065233
a6716901107dfde5eaf85377,坪山湿地公园,广东省,深圳市,坪山区,广东省深圳市坪山区金牛东路南130米,114.401858829308,22.7121813031205
64ff3be19df659a291114ce0,坪山公园,广东省,深圳市,坪山区,广东省深圳市坪山区东纵路坪山汽车总站斜对面,114.33870608409316,22.690698798474216
ee9097efca4d4651744ff191,水流田公园,广东省,深圳市,龙岗区,水田一路华伦世家家具附近,114.30066694523585,22.70885488407017
3330f4d322650fa7b1077def,横岗人民公园,广东省,深圳市,龙岗区,龙岗大道横岗段5014号,114.20438051971459,22.649547232479076
09185c56a1006923f11937c5,燕子岭公园,广东省,深圳市,坪山区,广东省深圳市坪山区龙田街道南布社区金牛西路,114.35323882922214,22.700455566388257
cdef4edf09c8a15728d7ab41,观音山公园,广东省,深圳市,龙岗区,广东省深圳市龙岗区大鹏街道王母社区金沙大道与坪西路交汇处,114.45165719622443,22.58735110068374
8c3ac62a48d17dc5f02d8357,金沙湾海滨公园,广东省,深圳市,龙岗区,广东省深圳市龙岗区大鹏新区棕榈大道33号,114.45154802369596,22.57205948405036
341c35de1a9164bee6073828,六约公园,广东省,深圳市,龙岗区,深圳市龙岗区礼耕路49号六约展鹏幼儿园对面,114.18279740327425,22.63801368791108
508c864ab56684dc6140a956,南联社区公园,广东省,深圳市,龙岗区,宝南路东50米,114.24598285897531,22.70162170107333
6ef66dd8e4befa141d389440,双龙公园,广东省,深圳市,龙岗区,广东省深圳市龙岗区龙岗立交,114.27520665214944,22.73239605776371
fc7675246f5857874f776e84,坪山区中心公园,广东省,深圳市,坪山区,广东省深圳市坪山区坪山街道丹梓西路,114.34324504915669,22.710402398382016
fd13a3f2765a06fab1077d2c,海山公园(深盐路),广东省,深圳市,盐田区,深圳市盐田区深盐路2100号,114.23533382758498,22.562492707767714
07a6f57c941fa781246e9826,广东梧桐山国家森林公园,广东省,深圳市,盐田区,广东省深圳市盐田区海山街道梧桐社区,114.2102635001203,22.58054630627244
6510388d89ffef3cd23ce367,龙岗智慧公园,广东省,深圳市,龙岗区,广东省深圳市龙岗区市民社区公园(深圳市龙岗区政府西南),114.24095313025616,22.722424008666597
158495eda58e24bfc26c1417,聚龙山生态公园,广东省,深圳市,坪山区,坪山区坑梓街道秀新社区锦绣中路,114.38631705538334,22.730698631151856
efeb0af2f45ce937ad045774,茶溪谷度假公园,广东省,深圳市,盐田区,深圳市盐田区东部华侨城内,114.27560962077239,22.635219822763464
87420b912145457888db73f5,云海谷体育公园,广东省,深圳市,盐田区,深圳市盐田区梅沙街道大梅沙环碧路东部华侨城景区内,114.28471893460136,22.631409358303383
5b639205eb9e5b36eb12e4b5,龙岗区大运公园,广东省,深圳市,龙岗区,广东省深圳市龙岗区龙城街道龙红格社区龙翔大道,114.19851057565717,22.688724983077794
991e727e31cda7ec93114cc4,航母公园,广东省,深圳市,盐田区,广东省深圳市盐田区沙头角航母公园(海景路东),114.23490763856266,22.55265333051618
ac988662ff456e56a2d23085,龙东公园,广东省,深圳市,龙岗区,深圳市龙岗区源盛路64-2号,114.2853814909993,22.72242175679575
99b32668ca09398dd718b753,深圳市国际生物谷坝光核心启动区银叶树湿地园,广东省,深圳市,龙岗区,坝核公路与243乡道交叉口西北50米,114.51318457948706,22.647884999168824
f8686a817405cbc6306212e6,盐田中央公园,广东省,深圳市,盐田区,广东省深圳市盐田区壹海城东南50米,114.23470807959708,22.556010449954346
e93761f6a257920e223bf202,茂盛公园,广东省,深圳市,龙岗区,深圳市龙岗区华乐路6号,114.19741779884968,22.655670363744488
a3f21eeeb2f29f442fb17e2c,东和公园,广东省,深圳市,盐田区,广东省深圳市盐田区海涛路1号,114.22834912447979,22.549949717519752
5daee7a21732ac3b0bf5ebd0,松子坑森林公园,广东省,深圳市,坪山区,广东省深圳市坪山区松子坑森林公园(丹梓大道北60米),114.35710264956082,22.725438321445584
714716ed43fea075b45f1ec3,海景路带状公园,广东省,深圳市,盐田区,广东省深圳市盐田区海景路11号西南100米,114.23124978454997,22.548546098453517
e56bf5e3171a6c440782c22c,东海岸运动公园,广东省,深圳市,盐田区,环碧路122号对面,114.29539756908845,22.602820466091597
c31c2255f9ff180fed74f8ba,大山陂主题公园,广东省,深圳市,坪山区,广东省深圳市坪山区坪山体育中心体育馆东南50米(八号路南),114.3408016944385,22.67729296238333
bb27cb2a9c8f65a517b54bb3,东江纵队北撤纪念公园,广东省,深圳市,龙岗区,大鹏新区葵涌中心城区沙鱼涌附近,114.4105233367761,22.610653359977597
08b5efc0ed79efd62dfaa75a,丘屋村公园,广东省,深圳市,龙岗区,广东省深圳市龙岗区银株路84-3东北50米,114.25651017832413,22.715631228403915
82533b22ea0c86001c389465,横岗文体广场公园,广东省,深圳市,龙岗区,横岗一号路与红棉一路交叉口南50米,114.1885674111355,22.648178613624125
9b41d52f14241120f21937da,荔园公园,广东省,深圳市,龙岗区,横岗街道安良八村荔园路6-1号,114.21857417054828,22.634573854780456
a5980ad43e62ff2fb6147f58,台地公园,广东省,深圳市,龙岗区,南通道8号附近,114.23979016296603,22.70146896762777
193179a81ce0a16a2fb96de0,海桐公园,广东省,深圳市,盐田区,广东省深圳市盐田区海桐社区公园(中青一路西400米),114.23342457101099,22.586019310048265
bb8228137899602330169b8c,宝龙社区公园,广东省,深圳市,龙岗区,广东省深圳市龙岗区宝龙五路与高科大道交叉口南150米,114.28159860539527,22.690343245785048
24d05508c135b2af12882468,梧桐文体公园,广东省,深圳市,罗湖区,深圳市罗湖区新二路66附近,114.18657920684484,22.593370796315128
a6a8399a24d6d0f2a5da3954,坜背村公园,广东省,深圳市,盐田区,广东省深圳市盐田区东海三街,114.2385685322661,22.600254046114795
672937c1d27618ea0bccddc2,大万公园,广东省,深圳市,龙岗区,广东省深圳市龙岗区万凤路10号,114.23586552332058,22.651216966435694
d5dd845470d02cf7990050ad,小梅沙生态公园,广东省,深圳市,盐田区,小梅沙新居(深圳小梅沙海洋世界西),114.32052242165028,22.606178522451167
c1296fa6276211b7f4231055,锦龙社区公园,广东省,深圳市,坪山区,广东省深圳市坪山区清风大道,114.3156668872761,22.69790149526927
e8af5cbfb1adeec6b04c4982,古塔社区公园,广东省,深圳市,盐田区,深圳市盐田区海景二路1106号附近,114.23076247182438,22.547746943073374
6c47c3c5e289a9d7a4c7562a,炳坑公园,广东省,深圳市,龙岗区,广东省深圳市龙岗区比宝二路与炳坑西区一巷交叉口东南50米,114.27316883253636,22.691433837277167
ed7241dd492472e30682c2a3,深圳市葵涌街道土洋公园,广东省,深圳市,龙岗区,洋北路与海景路交叉口西北150米,114.40338569928595,22.61600323094923
b720c0cec21c11d4d7b74e06,竹坑公园,广东省,深圳市,坪山区,坪山区新区竹坑第一工业区,114.3845067955115,22.711689715304587
c5000dbc4e1235318c55ec3c,南澳东大塘海钓公园,广东省,深圳市,龙岗区,广东省深圳市龙岗区新东路新海六路,114.51157269471982,22.545330266305214
5243f2164b3a9c244151c068,同心社区公园,广东省,深圳市,龙岗区,阳新路,114.3083318575649,22.717004254837548
4f2053eca3ecc3303913fd60,竹坑茜坑社区公园,广东省,深圳市,坪山区,广东省深圳市坪山区金兰路和金牛东路交叉口,114.3955504173121,22.71291854151685
b5ea63a9f876af3295ca0756,乐城公园,广东省,深圳市,龙岗区,坳园路与坳牌路交叉口西50米,114.21737142491499,22.67793812226065
57abb603fdb79787b42655fd,宝龙比亚迪公园,广东省,深圳市,龙岗区,广东省深圳市龙岗区宝龙街道宝龙社区宝平路1号,114.2709552524194,22.690418153191832
b5ea71f9297b861197031967,明珠人口文化公园,广东省,深圳市,盐田区,东海四街与盐田北四街交叉口东南100米,114.24866826972517,22.59110884779288
2ada94567663a7e1f1193724,石湖社区公园(碧新路龙岗段),广东省,深圳市,龙岗区,盛平工业二路1号,114.25753719878696,22.732336608096563
08dee607b64cf5abca1b9570,白鸡斗公园,广东省,深圳市,龙岗区,深圳市龙岗区梧岗路67号,114.22361929335615,22.620392291368315
bd70fdaa4b85debab426551f,深圳绿野乡村露营公园,广东省,深圳市,坪山区,广东省深圳市坪山区金地西路,114.39579774033584,22.655468080776206
1c7034563e5571265d17c3c8,天峦湖荔枝公园,广东省,深圳市,坪山区,广东省深圳市坪山区马峦街道马峦社区马峦路,114.34539943125554,22.668380997939582
32fa3b12f2cc2bcdd2f49e3a,坪山消防文化主题公园,广东省,深圳市,坪山区,广东省深圳市坪山区坪环十五巷南,114.3441584282246,22.683712120884262
4bde32b55ff6129abe4842d5,江岭远香公园,广东省,深圳市,坪山区,深圳市坪山区马峦街道江岭社区永金路与远香路交叉口东南50米,114.35433727403124,22.68566966041266
e7822d8aae9409c5c61b75d1,龙岗CBD公园综合体,广东省,深圳市,龙岗区,龙城大道132-9号附近,114.24789607636978,22.73294713721675
a7ec4a2f363eecb2a1a9341f,同乐新布公园,广东省,深圳市,龙岗区,广东省深圳市龙岗区新布路,114.32051099720059,22.724983729723565
b9e5d0b8d7b3d8c281a12e13,大鹏山庄公园,广东省,深圳市,龙岗区,广东省深圳市龙岗区大鹏山庄公园(鹏飞路北190米),114.46591221146339,22.60562605770865
1bd6fc2b07037f79b7265507,桥东社区公园,广东省,深圳市,盐田区,深圳市盐田区金融路93号,114.22591659367284,22.551874535172026
69666b00c0d0a02a9d9d68fd,田心社区文体公园,广东省,深圳市,盐田区,沙深路132号附近,114.22284708471551,22.55521979608806
be5bc92e735346a93c9a5e89,田头荔枝公园,广东省,深圳市,坪山区,广东省深圳市坪山区横沥镇田头村,114.39957644249691,22.693567562256245
cf2f0ee02a3e883081288a0f,葵涌街道官湖社区公园,广东省,深圳市,龙岗区,大鹏新区官湖路1-4,114.41944924826099,22.605332530071326
f0f2e20a419c1d20b9df8f53,大鹏新区银滩公园,广东省,深圳市,龙岗区,深圳市龙岗区银滩路西150米,114.49715611635197,22.578065367200395
02d078f5c5c743670accddb5,大梅沙村北公园,广东省,深圳市,盐田区,广东省深圳市盐田区大梅沙盐田区梅沙街道大梅沙社区服务综合楼,114.29952385489771,22.597939705732447
e4853e59c2f2de250aa8d4cc,东和社区-文体街心公园,广东省,深圳市,盐田区,官下路77号,114.22775624831455,22.55456305878866
bc323c4e129dea0363180986,向前街心公园,广东省,深圳市,龙岗区,广东省深圳市龙岗区鹏达路,114.2509141395281,22.7145265946946
4c828f68ad621d673310af1a,海关社区公园,广东省,深圳市,龙岗区,怡翠路与清林路交叉口西南50米,114.22838058255203,22.72203946394012
8f777dd74cab26e2ed74f89c,江岭社区公园,广东省,深圳市,坪山区,坪山区238乡道,114.36409216458276,22.663549608199983
95a980beb36cf33cc8213de4,深圳宪法公园,广东省,深圳市,盐田区,广东省深圳市盐田区公园路47号附近,114.2278912254834,22.55075621883289
6bb6e2a3189df0342806ce98,鹏茜国家矿山公园,广东省,深圳市,坪山区,深圳市坪山区坪山办事处汤坑社区,114.3019502628606,22.675915824701967
414628380414210375e5b6ac,深圳市三洲田森林公园,广东省,深圳市,盐田区,北山道,114.25740477854718,22.59363713505196
7fb457ff945ffa0f87330459,浪尾休闲公园,广东省,深圳市,坪山区,广东省深圳市坪山区浪尾路,114.3199074649723,22.695457058493165
969a69f36510754d9ff7796c,高源公园,广东省,深圳市,龙岗区,广东省深圳市龙岗区公园路8号,114.4314493384435,22.63131862397765
716503695562585f4f776ef5,梵妮城儿童公园,广东省,深圳市,龙岗区,广东省深圳市龙岗区宝荷深惠立交主桥,114.22408717534893,22.693375103438015
862469208717525671210b04,和脉温灸公园大地店,广东省,深圳市,龙岗区,广东省深圳市龙岗区龙翔大道6019,114.22975016214504,22.711292993658724
33c6d8fe3525e81a60180963,宝龙街道党建主题公园,广东省,深圳市,龙岗区,广东省深圳市龙岗区宝龙五路10-5西50米,114.29654435119033,22.694609720823617
f7bccc3a7d3ccd9e0482c2f4,华侨新村社区公园,广东省,深圳市,盐田区,广东省深圳市盐田区北山道119,114.26937669547857,22.590770547801
193c32b5218b7e94260bd03d,东冲社区沙岗公园,广东省,深圳市,龙岗区,广东省深圳市龙岗区东涌路东冲社区沙岗公园(遇见三米附近),114.5767118852859,22.49534375968302
e339fc322130fd7c86420e27,联和社区公园,广东省,深圳市,龙岗区,广东省深圳市龙岗区联和东区三巷联和社区公园,114.28291161618489,22.699234671879214
7084a3c6308def5cf60e7710,新秀社区公园,广东省,深圳市,龙岗区,龙平西路219号,114.21471895918714,22.730167061525872
bda5ee6aad75ec4a626858e9,江岭长守公园,广东省,深圳市,坪山区,广东省深圳市坪山区Y238(江岭路),114.36196512810876,22.6650705068123
a79a937cb297a9a5c72ba168,愉园社区公园,广东省,深圳市,龙岗区,和谐路39号,114.22116568943456,22.727125830644873
a5bae43a97cfce773617dc5d,麻地公园,广东省,深圳市,龙岗区,深圳市龙岗区碧园街26号,114.18409474607591,22.635226172960913
af1ae56b59576f124207c12c,盐田双拥公园,广东省,深圳市,盐田区,深圳市盐田区北山道148号明珠苑3栋,114.25535900129654,22.594027004047422
3af06904e17d633983a00c8a,龙平西路街心公园,广东省,深圳市,龙岗区,龙城建设路与龙平西路交叉口南50米,114.2424210649652,22.732452486958486
a0324d7a378f3c0ddbeced7c,石井社区公园,广东省,深圳市,坪山区,广东省深圳市坪山区名成路,114.38073615055208,22.69134687071613
2ecb709abaa8c6d9b817e774,创业公园,广东省,深圳市,龙岗区,广东省深圳市龙岗区智汇路南侧70米,114.2050611692974,22.700620742477273
7d338f6b90f24059a7c75632,龙城公园绿道,广东省,深圳市,龙岗区,深圳市龙岗区龙城公园绿道,114.22267201648519,22.720244997957952
b96a024989a24e4b00ff2dee,鹅公岌社区公园,广东省,深圳市,盐田区,广东省深圳市盐田区维也纳酒店大梅沙(海滨明珠店),114.30785644624429,22.603631977627273
2bdecbd5c3d27f823417dc33,葵涌街道盐村社区公园,广东省,深圳市,龙岗区,广东省深圳市龙岗区大鹏新区葵涌街道盐村社区公园(盐村路西),114.35081297468295,22.611259876794282
3a1c26889bdb9a290bf5ebdc,龙岗区廉洁文化主题公园,广东省,深圳市,龙岗区,广东省深圳市龙岗区龙德北路43北60米,114.23576442783481,22.724254186246146
b1ca12e1f893e51df60e772f,社区公园,广东省,深圳市,龙岗区,广东省深圳市龙岗区大鹏街道水头社区龙岐墩子村6-5号,114.49421481246634,22.56927054184875
ee3c09ac184bda9cca1b957d,鹏城荔枝公园,广东省,深圳市,龙岗区,深圳市龙岗区大鹏街道鹏城社区鹏飞路3108号,114.51849317945545,22.595866717024023
e3a4408279402baba8175ad2,回龙埔社区公园,广东省,深圳市,龙岗区,广东省深圳市龙岗区回龙埔社区公园(359省道北),114.23132812961498,22.733929938016715
e77db9560d034f84dbeced1e,行山公园,广东省,深圳市,龙岗区,广东省深圳市龙岗区海景路,114.40797099467832,22.62042563662676
1b395554fd007fd3a7c75626,深圳软件园龙岗分园-大运软件小镇山体公园,广东省,深圳市,龙岗区,莲塘尾一路与莲塘尾路交叉口南150米,114.22673449706683,22.68642887047172
8846d55faf2938d4601809fc,六和社区公园,广东省,深圳市,坪山区,广东省深圳市坪山区飞东村西南100米(长安街东),114.33770830690557,22.697968373111653
dc6e75ace9164ee88bdb7336,新塘坑社区公园,广东省,深圳市,龙岗区,广东省深圳市龙岗区新塘坑路80号附近,114.1942836825494,22.64821829448217
9ee7cc78915d5c0e16c90518,葵丰社区公园,广东省,深圳市,龙岗区,亚迪路与新村岭路交叉口东南150米,114.41113153933199,22.63165759629516
33c54202759631fec71e5198,永安工作站社区公园,广东省,深圳市,盐田区,广东省深圳市盐田区盐田街道东海道永安工作站社区公园,114.24153129092586,22.595629259913718
4c980cc8107e25770c0e6b35,大鹏布新社区公园,广东省,深圳市,龙岗区,广东省深圳市龙岗区大鹏街道布新社区石桥头村,114.4803433453644,22.5787018405492
14a8cd72db901959b05c6a1a,同乐科技园社区公园,广东省,深圳市,龙岗区,广东省深圳市龙岗区南同大道,114.2965056116172,22.69783251387592
cc0849a018fb002e9403191e,明珠社区公园,广东省,深圳市,盐田区,东海道274号,114.24706386433606,22.59531577057322
922d6d6e4f145b295e0d0225,天健现代城-社区公园,广东省,深圳市,龙岗区,广东省深圳市龙岗区清林路464号,114.21563170455406,22.722377027141352
e1f2587f2af74fe24e5547b7,东山社区大碓公园,广东省,深圳市,龙岗区,广东省深圳市龙岗区海碓路,114.53889536261576,22.560052213838663
3c0ea7c591f496e1faf0cb8b,枫浪山公园,广东省,深圳市,龙岗区,龙岗区新创街(枫南小区西南),114.492152938648,22.532345073315255
739db738206d4586a1a93410,汤坑社区公园,广东省,深圳市,坪山区,同富西路299号附近,114.30563879873344,22.670983245181905
8418b0b4e50b9dbb00ec011c,创景路街心公园,广东省,深圳市,坪山区,广东省深圳市坪山区创景路,114.39062619017426,22.715424102468393
488f28f797171c8314c8f6a3,愉香社区公园,广东省,深圳市,龙岗区,广东省深圳市龙岗区白灰围一路5,114.22263337823532,22.72560748137577
5cc1022df91c16699d82ea55,仙桃园公区,广东省,深圳市,龙岗区,排榜村仙桃园公区,114.20063960651784,22.64632836438996
b8d3657b1fd193c0f5c59cbf,自助图书馆(227罗湖梧桐文体公园),广东省,深圳市,罗湖区,梧桐文体公园广场内,114.18600962614615,22.593568446052206
5798890da8c9161346572693,万方社区公园,广东省,深圳市,龙岗区,广东省深圳市龙岗区建设路7正南方向80米,114.46983561112359,22.595398840883917
3e9cc7ed57d45297120daa02,锣鼓山公园,广东省,深圳市,龙岗区,广东省深圳市龙岗区公园路附近,114.48154554625637,22.593053983244594
58f661e8cadee87fe215f92c,叶屋西社区公园,广东省,深圳市,盐田区,广东省深圳市盐田区深盐路2250号附近,114.2263068839613,22.5568032621624
86acbf1766063bcfc9291560,大梅沙海滨公园-深圳十大观念,广东省,深圳市,盐田区,大梅沙盐梅路9号大梅沙海滨公园内,114.30455364691754,22.59799682347731
c1e2908496bb842cd42ce20a,愉景社区公园,广东省,深圳市,龙岗区,广东省深圳市龙岗区瑞华园西南(爱龙路北),114.22667410505018,22.730516065924537
66fcf88dcfc82be5cac3db6f,银园,广东省,深圳市,盐田区,广东省深圳市盐田区海琴路与盐葵路交叉口西南200米,114.31967082341299,22.60233097060346
8fbfffdc8cbb2d3c07026fbc,119消防主题公园,广东省,深圳市,龙岗区,广东省深圳市龙岗区银滩路,114.50266179962581,22.590383217682188
0dd16c46e14ae7cf0289723a,市民社区公园,广东省,深圳市,龙岗区,安心路与龙德南路交叉口东北100米,114.24089230841875,22.722777614754595
8eb48fa1d70c33d8f32d83cc,天集社区公园,广东省,深圳市,龙岗区,深圳市龙岗区龙平西路12号天集雅苑附近,114.23952195667019,22.732556617909164
f452da7afa5bf8bd79dbd209,银叶湿地园,广东省,深圳市,福田区,广东省深圳市福田区坝核公路与243乡道交叉口,114.51349097938882,22.650305531266493
1e55ba122165c1c2eddfcad1,尚景欣园-社区公园,广东省,深圳市,龙岗区,龙城大道119号附近,114.24723535873062,22.73196716599138
087755859426c77942d63e06,学苑街心公园,广东省,深圳市,坪山区,深圳市坪山区,114.31175051638037,22.673878537166242
1aaf3ccf30073c8e11882473,公园二路,广东省,深圳市,龙岗区,广东省深圳市龙岗区山子下路深圳康缘住宿附近,114.2392438960481,22.64794773388674
643e265c307fdd272afc4810,鹏广达·公园道,广东省,深圳市,盐田区,广东省深圳市盐田区盐田路208号东北80米,114.25410953184763,22.59396527746919
f11910cc05b5497043afe61c,观音山公园-龙严古寺,广东省,深圳市,龙岗区,东部大鹏街道,114.46050124330931,22.593069582813886
776c84ff37f0880c3f9a5e50,大运绿道,广东省,深圳市,龙岗区,广东省深圳市龙岗区大运绿道,114.19772310839002,22.690734999226443
8871dc593c6401f91894c69e,新东绿道,广东省,深圳市,龙岗区,广东省深圳市龙岗区X260(南澳新东路),114.55170157170505,22.557254639382773
41496d6339db0b4f9d95deb6,罗马公园,广东省,深圳市,龙岗区,深圳市龙岗区龙福西路与愉福路交叉路口往北约50米(欧景花园1期),114.22923194503845,22.727885065666793
3aebac513aa1ec9abea2406f,极地动物馆(小梅沙海上世界),广东省,深圳市,盐田区,深圳市盐田区盐葵路小梅沙海滨旅游区小梅沙海洋世界F2,114.32274767321158,22.607540067678833
f2539ee72f92766cd7851fa8,公园大地-10栋,广东省,深圳市,龙岗区,广东省深圳市龙岗区龙岗中心城龙翔大道6063号大地10栋,114.2296169092482,22.71633030728351
290cc140825d0938b120a845,公园大地-8栋,广东省,深圳市,龙岗区,广东省深圳市龙岗区龙岗中心城吉祥路公园大地8栋,114.23085957104048,22.716344271510184
2cc4c27169168908343a7116,公园大地-9栋,广东省,深圳市,龙岗区,广东省深圳市龙岗区龙岗中心城怡翠路公园大地9栋,114.2300589699321,22.716813253221556
75ab55db90e9f01ddeee8ba2,乐有家,广东省,深圳市,坪山区,深圳市坪山区联旺二街与深汕路交叉路口往西南约100米(六和城),114.33445251854755,22.695381439032904
5f2abd0d4c79d03663180992,孝文化园,广东省,深圳市,龙岗区,深圳市龙岗区Ｙ２２６与浪背路交叉路口东北侧(吓坑安全文明小区B区),114.31119687723502,22.732628760274928
49525ea20ed84beec2f1cfef,寮步湿地公园,广东省,东莞市,,深华路248附近,113.85267742935646,23.007910146292573
c9da4137534833cfb11e365e,松山湖中心公园,广东省,东莞市,,东莞市大岭山镇红棉路,113.87439344605949,22.93300961225015
78bd50f7263fd14231870a42,塘厦观光公园,广东省,东莞市,,东莞市塘厦镇环市北路3号,114.08888525912857,22.81422275146167
87248d962e499bb32906ce8f,虎门公园,广东省,东莞市,,东莞市虎门镇连升中路4号,113.68313903536746,22.821546212689473
2d3f3be7fb6cc60ba1a9349a,清溪文化公园,广东省,东莞市,,东莞市香芒中路3号,114.15626401326504,22.84262153904678
136f3a60c46c1300e01103c9,大屏嶂森林公园,广东省,东莞市,,东莞市塘厦镇森林公园路10号,114.00770358764332,22.79874397239616
dffd4642c851bbb23d9a5e85,西湖乐园,广东省,东莞市,,广东省东莞市南城街道雅园社区山湖路,113.75213435533071,22.968994670819395
5ce2637d231cdb51af31e58e,长安公园,广东省,东莞市,,东莞市长安镇德政中路212号,113.79979048388464,22.81939854126231
f4a33da963d54d743110afba,荔香湿地公园,广东省,东莞市,,东莞市深华路248号,113.9483056244359,22.9265042899918
bf29b7023c82148009b93a42,莲湖公园,广东省,东莞市,,东莞市桥头镇碧莲路3号,114.0958555613612,23.02073665841063
9fbfeef254535346ede4a567,猫山公园,广东省,东莞市,,长安镇猫山路,113.76007410496645,22.775549751771926
2e00c5ddc6730605d7851f7d,笔架山公园(陈屋正路),广东省,东莞市,,陈屋村十八巷,113.77906458841856,22.788664306621925
b4ef14086644c5c1c7f50d86,南湖公园(同心路),广东省,东莞市,,同心路,113.73461930256983,22.795974151925613
3729b560069795cd5b1093d4,旗峰公园,广东省,东莞市,,东莞市东城中路2号,113.7697610806994,23.01902743951321
f2b7aed8053a5d2cd8eced6b,水濂山森林公园,广东省,东莞市,,东莞市南城街道水濂社区水濂公园路18号,113.75755527954148,22.930072084973638
341c35de153179bee7073888,大岭山森林公园,广东省,东莞市,,东莞市大岭山镇拥军路,113.76922548895527,22.87830187039887
b292b3aa7340b456bf484287,鹰岭公园,广东省,东莞市,,东莞市科技创新基地2101号,113.92664412913967,23.00116011438548
91c13f93b4ccc4fa20f0178a,福神岗公园,广东省,东莞市,,广东省东莞市厚街镇博览大道与将军路交叉口,113.68736788289034,22.94965098714084
63c774cd9d617e26d8ecedb9,莲花山郊野公园,广东省,东莞市,,长安镇咸西大道莲花山,113.8039186547495,22.843090754421993
5ffb18160117505f6e4760bd,东莞虎英郊野公园,广东省,东莞市,,东莞市迎宾路,113.7826778577436,23.01154492566994
69130523536b4008735e80ba,黄江人民公园,广东省,东莞市,,广东省东莞市黄江镇宝山社区鸡啼岗路(黄江中学旁),114.00418002583253,22.90915558037029
6b42d810b333d35afe0eb021,南栅象山公园,广东省,东莞市,,广东省东莞市富民路北,113.69048983013172,22.789175423125602
3d1e27c9a33353b1ae0457cf,龙湾湿地公园,广东省,东莞市,,广东省东莞市塘溪路与诚利大道交叉口西北150米,113.70891534265883,23.024200102499307
448e82618e7ed473100daa6a,园龙山公园,广东省,东莞市,,康佳路19号,114.14253888251582,22.743568894607108
f4a33da9393463743010afd5,梦幻百花洲,广东省,东莞市,,东莞市松山湖新城路10号,113.8725309966812,22.93266498156337
8a6b13a958f369c25ebe866b,碧湖森林公园,广东省,东莞市,,凤岗碧湖大道,114.14030646097747,22.73528881066777
9b31a3f261836f22df1e520e,文天祥公园,广东省,东莞市,,广东省东莞市德政东路文天祥公园(兴顺科技园公交站东南),113.82898033354427,22.814002264601825
00586108340a1ca547e27485,同沙生态公园,广东省,东莞市,,东莞市莞长路383号,113.79397416394683,22.970556021804732
f2f15ffb843cd6f5621c67b1,岭头公园,广东省,东莞市,,东莞市工业大路216号,114.0701463293242,23.01301430805611
abdb19ba2ef859e50f0a7055,清溪森林公园,广东省,东莞市,,东莞市清溪镇清林路,114.16262361110276,22.881792740987457
41a0e87a74aab360f82d617a,滨海公园,广东省,东莞市,,滨海湾新区长安收费站西南侧,113.7193430274983,22.75318833359868
8f3ca1998838620d5abbbcb4,常平常新公园,广东省,东莞市,,广东省东莞市新城大道,114.00998525771341,22.954442624184082
126bb9ba5511b4d145572648,石水口公园,广东省,东莞市,,东莞市崩江围路120号,114.07464448686542,22.999653174059432
307e79bdb1bc31086ca3cc48,凤凰公园,广东省,东莞市,,凤凰路2号附近,113.92919977306569,22.979691765089324
68339ec5616439e0f723109b,横沥体育公园,广东省,东莞市,,站前路与785乡道交叉口西南50米,113.96513986441735,23.020743165655
2527be1e58c4a6b34bfc8db5,旗岭森林公园,广东省,东莞市,,广东省东莞市常平镇朗洲村,114.07969553472873,22.94494511254461
2527be1e58c5a6b34bfc8dba,广东观音山国家森林公园,广东省,东莞市,,东莞市樟木头镇笔架山路190号,114.10999879485199,22.905771923904904
4be97cf07b65bdc95cd4fef6,佛灵湖郊野公园,广东省,东莞市,,广东省东莞市寮步镇,113.8419153250667,22.963459215580603
b9e5d0b82d8b56c181a12e2b,杨屋马鞍山生态公园,广东省,东莞市,,广东省东莞市大兴路(杨屋村林场南侧),113.84731734251338,22.839294118325366
de051aabcf9c6738b23c818e,司马公园,广东省,东莞市,,广东省东莞市花园街27号北90米,114.06227121527893,22.97736355455018
a82af3ed10ac4d8c8bdb7305,横沥镇金牛公园,广东省,东莞市,,横沥镇沿江北路,113.95849772053754,23.019407513586856
e85e252740086b5394f08c8e,龙山公园,广东省,东莞市,,广东省东莞市长安镇区龙山公园(永兴路南),113.79950049779876,22.799370935343582
d5464cf83b34074efda7787d,金美公园,广东省,东莞市,,东莞市金美社园路39号,113.9743835271628,22.967441873711763
f3c2373cc72c8451d22dd667,神仙水公园,广东省,东莞市,,广东省东莞市东业路神仙水,113.69122756431328,22.915088772917645
637df60ac1f59d7241afe688,黄草朗公园,广东省,东莞市,,东莞市西胜路36号,113.90846305301042,22.917178255831278
cf2617428195996bdeee8b65,龙湾湿地乐跑公园,广东省,东莞市,,东莞市东莞水道特大桥旁,113.7026664978904,23.02467779513874
d6c5d991676cf1f130169b42,居岐公园,广东省,东莞市,,虎门镇居岐路34号,113.7259925574923,22.825256141413018
f60a15ed0289edf5ba17e7b1,大岭山体育公园,广东省,东莞市,,东莞市大岭山镇体育路20号,113.8282915304587,22.915187386556536
c9c57cb193c724dbf60e77c4,蛟乙塘公园,广东省,东莞市,,东莞市商业大道南21号,114.07309158265718,22.782802809404078
564c6347f7eb4b61d23ce35b,黄牛埔森林公园,广东省,东莞市,,东莞市大屏嶂森林公园对面,113.99336053131965,22.842450850238738
b1c556e8c990850cb52655ba,南山园,广东省,东莞市,,广东省东莞市金腰路72号,114.14665164657552,22.785022057971933
15e1e85eda0c70a2591093b5,土塘公园,广东省,东莞市,,广东省东莞市士塘公园路,114.0199294181939,22.963743037277133
0ecbd99c068013084107c18e,田心公园,广东省,东莞市,,南门四街与蝴蝶一路交叉口东150米,113.96507418972718,22.844422709767805
25ec69fcd3a4de64c26c147d,将军山烈士纪念公园,广东省,东莞市,,东莞市将军街18号,113.80790551125536,22.805624417286534
1bd339599e84551afa0cadba,水濂湖公园,广东省,东莞市,,蛤地路商铺26-28号附近,113.72452961307802,22.96634970907227
43b7e8898b594f6a59f6be84,苏坑公园,广东省,东莞市,,东莞市苏坑路171,113.95326855366608,22.968819882208045
4eb3b533df6cf375420245be,半仙山公园,广东省,东莞市,,东莞市市海路23号,113.9576892181719,23.02398359172886
3f826ed3bc647338d1f49e7d,银瓶山森林公园-清溪景区,广东省,东莞市,,广东省东莞市清溪镇清林路,114.16365491875946,22.883206980197816
fc2ae10dc284b6dcea12e435,田心公园,广东省,东莞市,,广东省东莞市八达路190,113.89019000034283,22.99152519337884
cac5fc76f591608e2cb96d2a,霞边公园,广东省,东莞市,,东莞市元下路3号,113.83531476672935,23.013098152488265
e85e252740356b5394f08cb5,桥沥公园,广东省,东莞市,,广东省东莞市桥沥步行街附近,114.00912322489394,22.943532464747836
be54cde961bd7b4178f79642,三台山公园,广东省,东莞市,,广东省东莞市农林路,113.68072703968942,22.78839693234357
4cf8d24ea0914ffd9cf7797d,下墟公园,广东省,东莞市,,常平镇下墟沙边街118号,113.98213652918452,22.978701353348498
a6da8be5a0dc39ecd618b730,篮球公园,广东省,东莞市,,广东省东莞市工业西路,113.8877760370227,22.97640939587872
37d60a465d15c4601f1d118a,赤岭公园,广东省,东莞市,,赤岭二街35附近,113.6886264467078,22.970528105282373
befdb29282b78de186154187,状元笔公园,广东省,东莞市,,广东省东莞市大岭山镇新城路,113.8773485621162,22.940760716747462
50e71eeebb4cc2a7afee7a2e,太鲁阁公园,广东省,东莞市,,广东省东莞市台南路,113.91984207683296,22.892872104835114
373cf757eac4aa134254d7b6,黄泥塘公园,广东省,东莞市,,黄坭塘市场路1号,114.03656133620208,22.995755246855257
48e1aefa94170d2e38221c2f,长安体育公园,广东省,东莞市,,锦绣路160号,113.79350099655707,22.825507182439683
cfa7c1bc9185b0fd5cd4fe93,迎宾公园,广东省,东莞市,,广东省东莞市森林湖小区,113.72820410014803,22.982977206190192
3a0a78bda88e9ee363180942,塘厦消防主题公园,广东省,东莞市,,东莞市塘厦镇宏业南六路1号,114.09323970416142,22.814136894062322
bb2c5edae4a1130c353a715c,凤岗人民公园,广东省,东莞市,,康佳路附近,114.14390513686769,22.74122385182036
4ea3f2f10bd8d6aaafcb66bd,岭厦人民公园,广东省,东莞市,,东莞市致富街85号,113.83630232913713,23.02597385634262
5ffb1816012b505f6e476081,滨江体育公园,广东省,东莞市,,东莞市东江大道,113.7197381791191,23.028518276579664
2b0cb0ccb5f57387f13cbac3,香市公园(祥富路店),广东省,东莞市,,广东省东莞市寮步镇祥富路香市公园,113.85606744454316,22.996073776834166
b9011bf56cabf017441a32d9,太禾山公园,广东省,东莞市,,广东省东莞市教育路29号,113.98937853962231,22.95148866647404
4169861a5cf67818c7f50dd8,桃源公园,广东省,东莞市,,东莞市滨湖路16号,113.88821369881926,22.890644342810685
f578a2f94a228ef80b69d981,金凤凰公园,广东省,东莞市,,广东省东莞市金城路25号南90米,114.16320657716447,22.74369305554703
52ccdf844cabf7bf17948ec3,松湖智谷公园,广东省,东莞市,,松山湖大道与石大路交汇处,113.86552207172151,22.969324159305536
eca2e4eede67498380a00cbe,大岭山公园,广东省,东莞市,,广东省东莞市大岭山镇教育路41号,113.83441007937617,22.9063689530972
e002bfbaae98d2890b69d998,滩美湖公园,广东省,东莞市,,广东省东莞市滩美湖(环湖绿道北),113.95187836699156,23.007101177267593
550fd5f95ecf8207931fc9de,九江水公园,广东省,东莞市,,石路街,114.05244288872638,22.951376811294892
06214d9c423daaab58f6beff,香江公园,广东省,东莞市,,广东省东莞市文康二街,113.88606627768226,22.998834336827922
3a755b6cb44fa001d23ce38e,健朗·阳光体育休闲公园,广东省,东莞市,,万江区阳光海岸花园南华国际酒店对面江边球场,113.70891261029072,23.028007959660357
89d8097976171da21b94c636,塘唇公园,广东省,东莞市,,东莞市唇福路1巷11号,113.84714369473178,23.023228016744362
6a1ddcaa66ba561908ccdd98,牛山公园,广东省,东莞市,,东莞市东城街道牛山社区山湖路1号,113.76939911239901,22.9616015438883
6229ccf89b912ff915a190e1,象山公园(西坊一街),广东省,东莞市,,李屋西坊街与西坊一街交叉口东150米,113.77707289546315,22.792700621105656
7aaa4358b8785a1e2811d1d1,星光体育休闲公园,广东省,东莞市,,星辉一街与星辉二街交叉口西北50米,113.9501153821825,22.827265675889763
231169137759eee4734b8742,度香亭公园,广东省,东莞市,,广东省东莞市水围坊二横巷2号,113.72980313733149,23.02345448192764
19e9189c19c1c5184e2fdf59,东莞黄旗山城市公园,广东省,东莞市,,东莞大道和东城中路交汇处,113.77989122334121,23.012216182647414
5687e71e391aa8c6cf06a48d,松柏朗荔枝公园,广东省,东莞市,,广东省东莞市新文路367号,113.8985543440823,22.94364051280177
ee8be7577dfe2f2b2cb96df3,凫山村公园,广东省,东莞市,,广东省东莞市盆岭街,113.9034307441924,22.985092776919196
ba6c0e178d52b86d028972cc,赤岭娱乐公园,广东省,东莞市,,东明路10号,113.69588755352663,22.968681387349278
de6a18b55ae80b2ec8213dd3,巷尾村公园,广东省,东莞市,,政和路26,113.91970247296207,22.950865930430574
f7252e83b667bc97b35c6ac1,东莞香市动物园,广东省,东莞市,,寮步镇药勒村,113.84653738682519,22.998827830179614
4debf987cb95daa781288a63,元美公园,广东省,东莞市,,广东省东莞市元美路与三元路交汇处(三元路北200米),113.74249785233698,23.008883827419297
d8e98a7a509ff994d72ce2aa,缪边公园,广东省,东莞市,,广东省东莞市永富街2号,113.85895316768998,22.97717732429901
5548d041b98ed9728f1a8904,厦边龙马公园,广东省,东莞市,,厦边大街与文德街交叉口北200米,113.72492967266476,22.80082300693748
608e6d86aca66607a8059d4c,文化公园,广东省,东莞市,,竹园路,113.68404764408135,22.943258890800596
6edf2692a59b11f8c9e33c8e,谢岗镇人民公园,广东省,东莞市,,谢岗镇环城南路,114.14367738154719,22.95294287043367
c99424efd7f18687593ac867,大岭山森林公园-茶山顶,广东省,东莞市,,东莞市虎门镇大岭山森林公园茶山顶,113.7692105075231,22.887772749004732
e3082848c6f01abfb24c49be,下车岗公园,广东省,东莞市,,东莞市金龙西路70号,113.94492318111669,23.01113839499887
1ea3f99019369f726cc02ce4,桃花源,广东省,东莞市,,东莞市大学路附近桃源公园内,113.8889458011019,22.890792012800286
fd99b55e68ed563f16a19081,社区公园,广东省,东莞市,,板湖新围街与聚富三街交叉口东150米,114.01813071435801,22.92359504589323
9f642d82c2842c465fbe861e,景山公园,广东省,东莞市,,东莞市清溪镇聚富路,114.15597038326331,22.831540305695093
ff02d38e6fefcacef842b288,松柏朗体育公园,广东省,东莞市,,富通路与北榕路交叉口西南角,113.8958551899601,22.94063383129873
78b9fbdb274d2571c7f50d3d,松木山体育公园,广东省,东莞市,,广东省东莞市喜庆路,113.90392720747415,22.901039849883226
485ba55528dac898c81b95bc,宁馨公园,广东省,东莞市,,宁馨北路6,113.71231222865404,22.82300529361488
15e1e85eda3170a25910938e,如园,广东省,东莞市,,广东省东莞市长中路105号,113.80295368474242,22.805179064007344
5f132e2bd60d9013a1a9340d,河西公园,广东省,东莞市,,广东省东莞市振兴西路,113.96679258326087,22.968735925522118
2505273d04219fa1accb6658,新联公园,广东省,东莞市,,虎门镇虎门镇新联村七巷,113.68613372823775,22.860099979363397
af3e754ebb8e114dd518b7ff,蛤地公园,广东省,东莞市,,广东省东莞市新南路和大新路交叉口,113.7260647981562,22.970711117363525
17d514c22b4644f74107c124,星堂公园,广东省,东莞市,,东莞市宏丰路5号,113.82110722554728,22.80694174395688
a6d73a0fb1aba47cc8213d18,沙湖湖景公园,广东省,东莞市,,塘厦镇沙湖村塘唇路25号美家福沙湖广场蓝球场旁美家福生活小超市,114.06264067055348,22.770284668789778
5eee30fb7dccf8b214b54b6f,木棆公园,广东省,东莞市,,东莞市木棆大道88号a1-a2铺,113.99429781058426,22.983622448540146
4daf2315cc36c8dc9e9d6849,笔迹山公园,广东省,东莞市,,广东省东莞市长安镇东门路30号,113.8066061746644,22.81418246379423
f60859fc03be8446ca09f0f4,大岭山森林公园-石洞城楼,广东省,东莞市,,东莞市怀林路尽头往西直走500米大岭山森林公园内,113.76393428304414,22.870042525745855
76d63098e38ae1773f9a5e1d,新农村公园,广东省,东莞市,,广东省东莞市上新路与新辉路交汇处东北200米,113.77357303307654,22.806446690050958
5daf8718764dbc0888f15de9,荔枝公园(华月轩南),广东省,东莞市,,大朗镇(华月轩南),113.93442159418694,22.997766016098073
7adab66b532999a6c909f020,横岗公园,广东省,东莞市,,湖景大道南150米,113.70512815868848,22.92396482164441
efdfde0a030f334b715e8019,亭岗文化公园,广东省,东莞市,,彭屋村,113.9166873899131,23.004219026493033
1dbc9d9b8893256731870a99,城市公园,广东省,东莞市,,广东省东莞市X234(石大公路),113.87227026595038,22.969012303298744
eb900b7260d070670aa8d4e8,彩霞公园,广东省,东莞市,,公园东路,113.96795199128893,23.01044827347579
09b4fa67fedd898f16a19066,东莞市大屏嶂森林公园-傣家长廊,广东省,东莞市,,大屏障森林公园内,114.007843539697,22.788920179860778
cd2cb6cb846cc7a13617dc17,泉塘公园,广东省,东莞市,,东莞市泉兴路21号,113.87265264998607,22.9863056561152
3676d0dfc3a114f39e82ea4a,马蹄岗公园,广东省,东莞市,,广东省东莞市围面前街65,113.86157729055442,22.940830531737785
2d308af45851cb0cca09f0fd,大岭山森林公园-马山仙境,广东省,东莞市,,东莞市大岭山镇大岭山镇府以西5公里百花洞村,113.78419968524162,22.90636489118251
a5e93b8b67fab7b0b5147f8b,厦岗廉政文化公园,广东省,东莞市,,广东省东莞市同心路,113.73871690230905,22.79520589625458
e281df2473e8e270c92915db,金洲梁屋公园,广东省,东莞市,,广东省东莞市金捷路金洲梁屋公园,113.68808561374139,22.810396972538936
373cf75725fbe16e4254d78f,沙角青年公园,广东省,东莞市,,广东省东莞市沙角青年公园(凤凰路南110米),113.69159933145939,22.75521014116421
4fae158c1befda4e7d29bdad,立新公园,广东省,东莞市,,广东省东莞市金湖苑南5-10号铺,113.7687730995847,23.001561658384574
06d2dffd86eddff788f15d30,雅园公园,广东省,东莞市,,南博职业技术学院附近,113.75332743299754,22.976810695658525
c105ed1bce0d1e74364aaec1,旧飞鹅公园,广东省,东莞市,,广东省东莞市旧飞鹅村前路,113.80812158500636,22.94830459248523
fd007c5e4d74466fa8f72963,大屏嶂森林公园-观音髻,广东省,东莞市,,大屏嶂森林公园内部,114.00600287398741,22.795383074897455
379fc6f18100ba7ab9df8fde,大岭山森林公园-寿佛殿,广东省,东莞市,,东莞市大岭山森林公园石洞景区观音寺内,113.7659631716992,22.86972928054701
5b25f44618663ee910293560,东莞市虎英郊野公园-雕塑园,广东省,东莞市,,东莞市虎英郊野公园雕塑园,113.7918220306762,23.012376380805815
2ec5ca0eabc579c43be4a624,莲花山郊野公园-观景台,广东省,东莞市,,东莞市长安镇莲花山景区内,113.80958697417756,22.848587947245356
a7866d8afb938f0288f15dbb,常平农业科普园,广东省,东莞市,,广东省东莞市翠珠路,114.00257812117589,22.965390084341976
8e615c8a9bd95d0703ec0133,莲花山郊野公园-莲花古寺,广东省,东莞市,,东莞市咸西莲花山庄入口300米长安郊野公园内,113.80693119861901,22.84508799867012
f04e1ba94cf8c5f171210b0f,大屏嶂森林公园-荔香园,广东省,东莞市,,大屏嶂森林公园东门附近,114.00540302533308,22.790710554007966
c7efca6b5081ed945cbe86a0,人民公园,广东省,惠州市,惠阳区,惠州市惠阳区人民公园路,114.45748585307723,22.794839644765723
bf57c33df706f635a8f0cd91,红树林公园,广东省,惠州市,惠阳区,大亚湾区中兴中路与中兴南路交叉口,114.53246294577833,22.73932929052445
93cf7eace4191262f32d8386,大亚湾儿童公园,广东省,惠州市,惠阳区,惠州市惠阳区龙海二路与龙山七道交口,114.46094836955817,22.751354804945887
4da034b89f9157c95cd4fe93,大亚湾森林公园,广东省,惠州市,惠阳区,广东省惠州市惠阳区大亚湾森林公园(惠深沿海高速公路),114.66792966165663,22.80640988749169
4ea3f2f129c8b4d7afcb66a8,半岛文化体育公园,广东省,惠州市,惠阳区,广东省惠州市惠阳区东华大道中段,114.44669928641542,22.79942042328232
4fb5e00a4435b04a8f1a8964,景岭公园,广东省,惠州市,惠阳区,广东省惠州市惠阳区秋长路与鹏南路路口(公园南街25号附近),114.4306647849379,22.818403988682192
d4034eb32abe8ff5c0364410,虎头山公园,广东省,惠州市,惠阳区,中兴南路101号,114.52290544038273,22.738809443905282
99e2353b1c6061ee276e986d,嘉伦多体育公园,广东省,惠州市,惠阳区,惠州市惠阳区镇隆汽车站南行200米路西(远大电梯厂对面),114.31905450205436,22.97213101812212
1369d7975e8202d54f6d46f1,逢春公园,广东省,惠州市,惠阳区,广东省惠州市惠阳区逢春公园(惠南大道东200米),114.45729411320191,22.850427458535734
501a2d60e0affcfda11de9d8,河滩公园,广东省,惠州市,惠阳区,惠州市惠阳区大亚湾大道,114.51018849835614,22.738878834437354
af662b549962ebfbab0dd877,潼湖湿地公园,广东省,惠州市,惠城区,惠州市惠城区G0422东,114.20440874850044,23.011813755565793
929dc21c54c8c6b3fbdc85e3,碧桂园润杨溪谷水杉湿地公园,广东省,惠州市,惠阳区,广东省惠州市惠阳区惠东大道沙田镇田头村,114.52621453337606,22.84150861035424
d9e9f585fd281071d13ce38c,沙田文化体育公园,广东省,惠州市,惠阳区,广东省惠州市惠阳区沙田镇Y917,114.54699640912962,22.868751754633287
bb62ae74861e00601ef74d9c,古树公园,广东省,惠州市,惠阳区,广东省惠州市惠阳区225县道西50米,114.41714348580179,22.86048404699218
e825754ff8fec7591d1d1129,顺居文体公园,广东省,惠州市,惠阳区,广东省惠州市惠阳区顺居路,114.41927456517567,22.834296189137135
fadf70eb987a57b1902ca3ed,中信乐活公园,广东省,惠州市,惠阳区,惠州市惠阳区,114.48799527806004,22.812149418284204
783b852fc159f63b40ab9a52,金龟山公园,广东省,惠州市,惠阳区,广东省惠州市惠阳区龙山九路,114.48301275997518,22.741756017467672
3ee334f85f9052c4f6b916d1,珍稀馆,广东省,惠州市,惠阳区,承修一路21-3正东方向51米,114.47278795366397,22.785142309788036
5e2edc596ecc83a3a20464ef,惠州惠阳西区新寮村公园,广东省,惠州市,惠阳区,广东省惠州市惠阳区龙山二路,114.43168250187013,22.763161468970296
3f44fbd9cb2444a32afc4803,青春村公园,广东省,惠州市,惠城区,广东省惠州市惠城区S357(仲恺六路),114.27906225554912,22.98763773142983
feba85dc33692c1ba80dd84d,埔梓园,广东省,惠州市,惠阳区,秋溪中路与秋溪南路交叉口东南150米,114.41635865173279,22.820726036667562
0be852b75583a8a39d95def6,乐民小游园,广东省,惠州市,惠城区,广东省惠州市惠城区仲恺大道279号西北60米,114.34837692264296,23.025312134792355
4ea3f2f10edcc9aaafcb66b9,排坊公园,广东省,惠州市,惠阳区,人民四路15号,114.45130209307277,22.805590512058455
31d2616e860323456b49f3ac,鲤麻岭公园,广东省,惠州市,惠阳区,广东省惠州市惠阳区X206(龙富路),114.4602564595106,22.75947646086883
f93c8cd2b46a42b2c4f50d8f,国家城市湿地公园,广东省,惠州市,惠阳区,广东省惠州市惠阳区中兴中路辅路,114.53111629564101,22.737626662660933
410a7b2e926547b6c61e518c,大亚湾(澳头)法治文化公园,广东省,惠州市,惠阳区,惠州市惠阳区大亚湾文化体育中心附近红树林公园内,114.5216273140138,22.740994240327428
0623f369dd7fb9262efaa763,霞新村螺岛公园,广东省,惠州市,惠阳区,广东省惠州市惠阳区出海口桥与横头街交叉口东南150米,114.65658873296832,22.770966204349577
8a0d5872cf5d8f90931fc96a,119消防主题公园,广东省,惠州市,惠阳区,惠州市惠阳区,114.47236220911435,22.76033137373887
5195efe9515237a6b21e3667,古韵公园,广东省,惠州市,惠阳区,霞角大道附近,114.55248266866953,22.994606622056466
ebff7b17a83b9db17369d3ff,崇德园,广东省,惠州市,惠阳区,惠州市惠阳区东华大道中附近,114.44348994819089,22.794298027962583
3c9126b7de7d99a8fa0cad09,山子头公园,广东省,惠州市,惠阳区,广东省惠州市惠阳区,114.62975419219048,22.779245835866718
512d12446c8961e59868b422,惠州大亚湾沙排村公园,广东省,惠州市,惠阳区,广东省惠州市惠阳区石化大道东,114.65556739081394,22.792245917278446
9dd412a64ac1f6a001897289,公园道水哥,广东省,惠州市,惠阳区,广东省惠州市惠阳区石化大道西45东南60米,114.45744931562615,22.74363227308998
fcc335f7a365b20c3517dcf2,红杉林公园,广东省,惠州市,惠阳区,广东省惠州市惠阳区中兴中路辅路,114.53121012151185,22.738299193241584
01ab1730cc2953e1b35c6a07,健康主题公园,广东省,惠州市,惠阳区,广东省惠州市惠阳区东华大道中,114.44478986797246,22.79528989432387
625deb8554ffee66afee7ac5,板嶂岭森林公园-山顶瞭望平台,广东省,惠州市,惠阳区,广东省惠州市惠阳区,114.45649670094956,22.73946118203038
16dfc8b0d85f907d213bf2fb,桃花林,广东省,惠州市,惠阳区,霞涌镇大亚湾义连村清泉古寺内,114.64380784416954,22.797356675493788
7c9392330718c3ff38e4a61f,萌宠王国逗趣动物园,广东省,惠州市,惠阳区,惠州市惠阳区星河东六路(惠州星河丹堤花园西北侧约100米),114.4817388344272,22.779216895675354
892a33664ff179c6e31103a4,林阴园,广东省,惠州市,惠阳区,霞涌镇大亚湾义连村清泉古寺内,114.6439686038088,22.797964728061572
84abbc53aa3427f58f1a89f5,碧桂园中萃公园,广东省,惠州市,惠阳区,惠州大亚湾大道上扬路与中兴二路和石化大道,114.51338344884545,22.739771119588898
ed9377f6d4adfb50581093a9,中央公园,广东省,惠州市,惠阳区,惠州市大亚湾中心区中兴北路178号,114.5265873581084,22.75309636579399
d26b9bbd94a5df34cae33ce2,碧桂园太东公园上城,广东省,惠州市,惠阳区,大亚湾西区中兴北路219号,114.49956419785214,22.75310402271273
331f01907b880f29df1e528f,公园道一号,广东省,惠州市,惠阳区,石化大道西71号附近,114.45710648261871,22.743819363990486
ebcbbf48a5110fe209a8d494,优悠拎包入住公园上城店,广东省,惠州市,惠阳区,广东省惠州市惠阳区科技路,114.50017760263705,22.75231555938898
13179c7d60e2c6244bfc8d91,时尚公园-直梯(客梯),广东省,惠州市,惠城区,惠州市惠城区仲恺大道376号TPARK时尚公园B2,114.3490975990228,23.02699771565255
0f83636def1ba5e00ab93a99,状元府,广东省,惠州市,惠阳区,广东省惠州市惠阳区御和路,114.4844526327676,22.894454405672573
50037999dbcce4670a5cb303,富艺,广东省,惠州市,惠阳区,广东省惠州市惠阳区G205(山深线),114.32587514970832,22.819833259324177
0f8130ecc62e6857f6c59c5a,惠源居,广东省,惠州市,惠阳区,大亚湾西区大喜街35号,114.46667545174063,22.769635675443492
579e4b0e65868a3b0482c292,福禄寿,广东省,惠州市,惠阳区,龙山二路22号惠阳区新寮农贸市场36号铺,114.42960774281872,22.765155987150447
b4a6443af186ae1ea6da39aa,桂园大东公园上城,广东省,惠州市,惠阳区,惠州市惠阳区龙海二路与中兴北路交叉路口西侧(亲水湾西南侧),114.49427108232457,22.757911529221673
